{
  "type": "FeatureCollection",
  "features": [
    {
      "type": "Feature",
      "properties": {
        "norad_id": 30389,
        "name": "FENGYUN 1C DEB",
        "group": "fengyun-1c-debris",
        "lat": -17.570030257432816,
        "lon": -117.35648843226151,
        "alt_km": 741.5132862848031,
        "timestamp": "2025-12-10T07:43:55.055404+00:00",
        "meta_object_name": "FENGYUN 1C DEB",
        "meta_object_id": "1999-025ADC",
        "meta_epoch": "2025-12-09T16:36:06.639264",
        "meta_mean_motion": 14.43977648,
        "meta_eccentricity": 0.0014047,
        "meta_inclination": 98.8372,
        "meta_ra_of_asc_node": 64.8127,
        "meta_arg_of_pericenter": 228.6918,
        "meta_mean_anomaly": 293.7896,
        "meta_ephemeris_type": 0,
        "meta_classification_type": "U",
        "meta_norad_cat_id": 30389,
        "meta_element_set_no": 999,
        "meta_rev_at_epoch": 97742,
        "meta_bstar": 0.003526,
        "meta_mean_motion_dot": 0.00012033,
        "meta_mean_motion_ddot": 0,
        "tle_line1": "1 30389U 99025ADC 25343.69174351  .00012033  00000+0  35260-2 0  9997",
        "tle_line2": "2 30389  98.8372  64.8127 0014047 228.6918 293.7896 14.43977648977428"
      },
      "geometry": {
        "type": "Point",
        "coordinates": [
          -117.35648843226151,
          -17.570030257432816
        ]
      }
    },
    {
      "type": "Feature",
      "properties": {
        "norad_id": 30390,
        "name": "FENGYUN 1C DEB",
        "group": "fengyun-1c-debris",
        "lat": 15.332123677623944,
        "lon": -110.06289891935714,
        "alt_km": 744.9383298234816,
        "timestamp": "2025-12-10T07:43:55.055414+00:00",
        "meta_object_name": "FENGYUN 1C DEB",
        "meta_object_id": "1999-025ADD",
        "meta_epoch": "2025-12-09T04:23:34.909152",
        "meta_mean_motion": 14.29676745,
        "meta_eccentricity": 0.0068203,
        "meta_inclination": 98.8221,
        "meta_ra_of_asc_node": 66.3432,
        "meta_arg_of_pericenter": 174.637,
        "meta_mean_anomaly": 250.2439,
        "meta_ephemeris_type": 0,
        "meta_classification_type": "U",
        "meta_norad_cat_id": 30390,
        "meta_element_set_no": 999,
        "meta_rev_at_epoch": 97333,
        "meta_bstar": 0.0024037042,
        "meta_mean_motion_dot": 6.279e-05,
        "meta_mean_motion_ddot": 0,
        "tle_line1": "1 30390U 99025ADD 25343.18304293  .00006279  00000+0  24037-2 0  9998",
        "tle_line2": "2 30390  98.8221  66.3432 0068203 174.6370 250.2439 14.29676745973339"
      },
      "geometry": {
        "type": "Point",
        "coordinates": [
          -110.06289891935714,
          15.332123677623944
        ]
      }
    },
    {
      "type": "Feature",
      "properties": {
        "norad_id": 30391,
        "name": "FENGYUN 1C DEB",
        "group": "fengyun-1c-debris",
        "lat": -14.798402992179746,
        "lon": -151.9810221682503,
        "alt_km": 828.4217425516354,
        "timestamp": "2025-12-10T07:43:55.055424+00:00",
        "meta_object_name": "FENGYUN 1C DEB",
        "meta_object_id": "1999-025ADE",
        "meta_epoch": "2025-12-09T02:14:27.186144",
        "meta_mean_motion": 14.16210933,
        "meta_eccentricity": 0.00712897,
        "meta_inclination": 98.7805,
        "meta_ra_of_asc_node": 29.1476,
        "meta_arg_of_pericenter": 272.545,
        "meta_mean_anomaly": 141.7591,
        "meta_ephemeris_type": 0,
        "meta_classification_type": "U",
        "meta_norad_cat_id": 30391,
        "meta_element_set_no": 999,
        "meta_rev_at_epoch": 96827,
        "meta_bstar": 0.0013999589,
        "meta_mean_motion_dot": 2.798e-05,
        "meta_mean_motion_ddot": 0,
        "tle_line1": "1 30391U 99025ADE 25343.09337021  .00002798  00000+0  14000-2 0  9995",
        "tle_line2": "2 30391  98.7805  29.1476 0071289 272.5450 141.7591 14.16210933968276"
      },
      "geometry": {
        "type": "Point",
        "coordinates": [
          -151.9810221682503,
          -14.798402992179746
        ]
      }
    },
    {
      "type": "Feature",
      "properties": {
        "norad_id": 30392,
        "name": "FENGYUN 1C DEB",
        "group": "fengyun-1c-debris",
        "lat": -76.83040712614346,
        "lon": 141.60142577929335,
        "alt_km": 903.942581626884,
        "timestamp": "2025-12-10T07:43:55.055435+00:00",
        "meta_object_name": "FENGYUN 1C DEB",
        "meta_object_id": "1999-025ADF",
        "meta_epoch": "2025-12-09T19:23:53.738304",
        "meta_mean_motion": 14.07441737,
        "meta_eccentricity": 0.0181103,
        "meta_inclination": 98.7857,
        "meta_ra_of_asc_node": 2.4724,
        "meta_arg_of_pericenter": 5.1342,
        "meta_mean_anomaly": 174.6241,
        "meta_ephemeris_type": 0,
        "meta_classification_type": "U",
        "meta_norad_cat_id": 30392,
        "meta_element_set_no": 999,
        "meta_rev_at_epoch": 96629,
        "meta_bstar": 0.0011986,
        "meta_mean_motion_dot": 2.3e-05,
        "meta_mean_motion_ddot": 0,
        "tle_line1": "1 30392U 99025ADF 25343.80826086  .00002300  00000+0  11986-2 0  9998",
        "tle_line2": "2 30392  98.7857   2.4724 0181103   5.1342 174.6241 14.07441737966296"
      },
      "geometry": {
        "type": "Point",
        "coordinates": [
          141.60142577929335,
          -76.83040712614346
        ]
      }
    },
    {
      "type": "Feature",
      "properties": {
        "norad_id": 30393,
        "name": "FENGYUN 1C DEB",
        "group": "fengyun-1c-debris",
        "lat": 66.97991920492942,
        "lon": 19.778600029284135,
        "alt_km": 938.8365903354343,
        "timestamp": "2025-12-10T07:43:55.055445+00:00",
        "meta_object_name": "FENGYUN 1C DEB",
        "meta_object_id": "1999-025ADG",
        "meta_epoch": "2025-12-09T04:17:20.323680",
        "meta_mean_motion": 13.98979479,
        "meta_eccentricity": 0.00694816,
        "meta_inclination": 99.1646,
        "meta_ra_of_asc_node": 40.9653,
        "meta_arg_of_pericenter": 269.8457,
        "meta_mean_anomaly": 163.0499,
        "meta_ephemeris_type": 0,
        "meta_classification_type": "U",
        "meta_norad_cat_id": 30393,
        "meta_element_set_no": 999,
        "meta_rev_at_epoch": 96280,
        "meta_bstar": 0.00041926123,
        "meta_mean_motion_dot": 5.73e-06,
        "meta_mean_motion_ddot": 0,
        "tle_line1": "1 30393U 99025ADG 25343.17870745  .00000573  00000+0  41926-3 0  9998",
        "tle_line2": "2 30393  99.1646  40.9653 0069481 269.8457 163.0499 13.98979479962804"
      },
      "geometry": {
        "type": "Point",
        "coordinates": [
          19.778600029284135,
          66.97991920492942
        ]
      }
    },
    {
      "type": "Feature",
      "properties": {
        "norad_id": 30394,
        "name": "FENGYUN 1C DEB",
        "group": "fengyun-1c-debris",
        "lat": 63.60991119026762,
        "lon": -7.052119192612464,
        "alt_km": 853.6439666515244,
        "timestamp": "2025-12-10T07:43:55.055455+00:00",
        "meta_object_name": "FENGYUN 1C DEB",
        "meta_object_id": "1999-025ADH",
        "meta_epoch": "2025-12-09T20:11:40.351200",
        "meta_mean_motion": 13.95784068,
        "meta_eccentricity": 0.0089926,
        "meta_inclination": 99.4355,
        "meta_ra_of_asc_node": 12.0364,
        "meta_arg_of_pericenter": 109.1759,
        "meta_mean_anomaly": 62.5436,
        "meta_ephemeris_type": 0,
        "meta_classification_type": "U",
        "meta_norad_cat_id": 30394,
        "meta_element_set_no": 999,
        "meta_rev_at_epoch": 96063,
        "meta_bstar": 0.0005579,
        "meta_mean_motion_dot": 7.42e-06,
        "meta_mean_motion_ddot": 0,
        "tle_line1": "1 30394U 99025ADH 25343.84143925  .00000742  00000+0  55790-3 0  9998",
        "tle_line2": "2 30394  99.4355  12.0364 0089926 109.1759  62.5436 13.95784068960639"
      },
      "geometry": {
        "type": "Point",
        "coordinates": [
          -7.052119192612464,
          63.60991119026762
        ]
      }
    },
    {
      "type": "Feature",
      "properties": {
        "norad_id": 30395,
        "name": "FENGYUN 1C DEB",
        "group": "fengyun-1c-debris",
        "lat": -28.582501777552118,
        "lon": 175.03823177934657,
        "alt_km": 1027.7732843712165,
        "timestamp": "2025-12-10T07:43:55.055465+00:00",
        "meta_object_name": "FENGYUN 1C DEB",
        "meta_object_id": "1999-025ADJ",
        "meta_epoch": "2025-12-09T19:34:00.230880",
        "meta_mean_motion": 13.96686165,
        "meta_eccentricity": 0.0160616,
        "meta_inclination": 98.9309,
        "meta_ra_of_asc_node": 359.4606,
        "meta_arg_of_pericenter": 34.2078,
        "meta_mean_anomaly": 147.2689,
        "meta_ephemeris_type": 0,
        "meta_classification_type": "U",
        "meta_norad_cat_id": 30395,
        "meta_element_set_no": 999,
        "meta_rev_at_epoch": 95982,
        "meta_bstar": 0.00075244,
        "meta_mean_motion_dot": 1.121e-05,
        "meta_mean_motion_ddot": 0,
        "tle_line1": "1 30395U 99025ADJ 25343.81528045  .00001121  00000+0  75244-3 0  9994",
        "tle_line2": "2 30395  98.9309 359.4606 0160616  34.2078 147.2689 13.96686165959828"
      },
      "geometry": {
        "type": "Point",
        "coordinates": [
          175.03823177934657,
          -28.582501777552118
        ]
      }
    }
  ]
}